{
  "type": "FeatureCollection",
  "features": [
    {
      "type": "Feature",
      "properties": {
        "norad_id": 41773,
        "name": "SKYSAT-C2",
        "group": "resource",
        "lat": -43.02345808904139,
        "lon": -162.46654346781963,
        "alt_km": 461.2041069708621,
        "timestamp": "2025-12-26T04:40:05.445610+00:00",
        "meta_object_name": "SKYSAT-C2",
        "meta_object_id": "2016-058D",
        "meta_epoch": "2025-12-25T15:12:14.992704",
        "meta_mean_motion": 15.37557399,
        "meta_eccentricity": 0.0002701,
        "meta_inclination": 97.0352,
        "meta_ra_of_asc_node": 23.6144,
        "meta_arg_of_pericenter": 355.0273,
        "meta_mean_anomaly": 5.0945,
        "meta_ephemeris_type": 0,
        "meta_classification_type": "U",
        "meta_norad_cat_id": 41773,
        "meta_element_set_no": 999,
        "meta_rev_at_epoch": 51834,
        "meta_bstar": 0.00033324,
        "meta_mean_motion_dot": 0.00012209,
        "meta_mean_motion_ddot": 0,
        "tle_line1": "1 41773U 16058D   25359.63350686  .00012209  00000+0  33324-3 0  9994",
        "tle_line2": "2 41773  97.0352  23.6144 0002701 355.0273   5.0945 15.37557399518343"
      },
      "geometry": {
        "type": "Point",
        "coordinates": [
          -162.46654346781963,
          -43.02345808904139
        ]
      }
    },
    {
      "type": "Feature",
      "properties": {
        "norad_id": 41774,
        "name": "SKYSAT-C3",
        "group": "resource",
        "lat": 40.1980589903283,
        "lon": 27.418084313436548,
        "alt_km": 428.0722490677945,
        "timestamp": "2025-12-26T04:40:05.445621+00:00",
        "meta_object_name": "SKYSAT-C3",
        "meta_object_id": "2016-058E",
        "meta_epoch": "2025-12-25T16:03:24.261984",
        "meta_mean_motion": 15.44855882,
        "meta_eccentricity": 0.00021421,
        "meta_inclination": 96.9285,
        "meta_ra_of_asc_node": 32.8147,
        "meta_arg_of_pericenter": 106.7265,
        "meta_mean_anomaly": 253.422,
        "meta_ephemeris_type": 0,
        "meta_classification_type": "U",
        "meta_norad_cat_id": 41774,
        "meta_element_set_no": 999,
        "meta_rev_at_epoch": 51925,
        "meta_bstar": 0.00039494136,
        "meta_mean_motion_dot": 0.00018467,
        "meta_mean_motion_ddot": 0,
        "tle_line1": "1 41774U 16058E   25359.66903081  .00018467  00000+0  39494-3 0  9997",
        "tle_line2": "2 41774  96.9285  32.8147 0002142 106.7265 253.4220 15.44855882519255"
      },
      "geometry": {
        "type": "Point",
        "coordinates": [
          27.418084313436548,
          40.1980589903283
        ]
      }
    },
    {
      "type": "Feature",
      "properties": {
        "norad_id": 41785,
        "name": "ALSAT 1B",
        "group": "resource",
        "lat": -8.951216014162439,
        "lon": 12.636876291645256,
        "alt_km": 656.5157855897905,
        "timestamp": "2025-12-26T04:40:05.445631+00:00",
        "meta_object_name": "ALSAT 1B",
        "meta_object_id": "2016-059C",
        "meta_epoch": "2025-12-25T23:48:54.408096",
        "meta_mean_motion": 14.72088045,
        "meta_eccentricity": 0.00107234,
        "meta_inclination": 97.7809,
        "meta_ra_of_asc_node": 11.2093,
        "meta_arg_of_pericenter": 66.4448,
        "meta_mean_anomaly": 293.7886,
        "meta_ephemeris_type": 0,
        "meta_classification_type": "U",
        "meta_norad_cat_id": 41785,
        "meta_element_set_no": 999,
        "meta_rev_at_epoch": 49509,
        "meta_bstar": 5.2401364e-05,
        "meta_mean_motion_dot": 2.83e-06,
        "meta_mean_motion_ddot": 0,
        "tle_line1": "1 41785U 16059C   25359.99229639  .00000283  00000+0  52401-4 0  9997",
        "tle_line2": "2 41785  97.7809  11.2093 0010723  66.4448 293.7886 14.72088045495097"
      },
      "geometry": {
        "type": "Point",
        "coordinates": [
          12.636876291645256,
          -8.951216014162439
        ]
      }
    },
    {
      "type": "Feature",
      "properties": {
        "norad_id": 41787,
        "name": "PATHFINDER 1",
        "group": "resource",
        "lat": -20.13054602026067,
        "lon": 179.4585514556647,
        "alt_km": 694.3619908037872,
        "timestamp": "2025-12-26T04:40:05.445641+00:00",
        "meta_object_name": "PATHFINDER 1",
        "meta_object_id": "2016-059E",
        "meta_epoch": "2025-12-25T22:51:01.037376",
        "meta_mean_motion": 14.67343683,
        "meta_eccentricity": 0.00295568,
        "meta_inclination": 97.8139,
        "meta_ra_of_asc_node": 2.1126,
        "meta_arg_of_pericenter": 40.8305,
        "meta_mean_anomaly": 319.5107,
        "meta_ephemeris_type": 0,
        "meta_classification_type": "U",
        "meta_norad_cat_id": 41787,
        "meta_element_set_no": 999,
        "meta_rev_at_epoch": 49430,
        "meta_bstar": 0.00015203511,
        "meta_mean_motion_dot": 8.17e-06,
        "meta_mean_motion_ddot": 0,
        "tle_line1": "1 41787U 16059E   25359.95209534  .00000817  00000+0  15204-3 0  9999",
        "tle_line2": "2 41787  97.8139   2.1126 0029556  40.8305 319.5107 14.67343683494306"
      },
      "geometry": {
        "type": "Point",
        "coordinates": [
          179.4585514556647,
          -20.13054602026067
        ]
      }
    },
    {
      "type": "Feature",
      "properties": {
        "norad_id": 41790,
        "name": "SCATSAT 1",
        "group": "resource",
        "lat": 34.385537633301965,
        "lon": 51.4074406879329,
        "alt_km": 605.13777829627,
        "timestamp": "2025-12-26T04:40:05.445652+00:00",
        "meta_object_name": "SCATSAT 1",
        "meta_object_id": "2016-059H",
        "meta_epoch": "2025-12-25T17:08:45.596832",
        "meta_mean_motion": 14.78977295,
        "meta_eccentricity": 0.00564601,
        "meta_inclination": 98.1446,
        "meta_ra_of_asc_node": 56.5458,
        "meta_arg_of_pericenter": 87.1429,
        "meta_mean_anomaly": 273.6242,
        "meta_ephemeris_type": 0,
        "meta_classification_type": "U",
        "meta_norad_cat_id": 41790,
        "meta_element_set_no": 999,
        "meta_rev_at_epoch": 7594,
        "meta_bstar": 0.00020774795,
        "meta_mean_motion_dot": 1.519e-05,
        "meta_mean_motion_ddot": 0,
        "tle_line1": "1 41790U 16059H   25359.71441663  .00001519  00000+0  20775-3 0  9997",
        "tle_line2": "2 41790  98.1446  56.5458 0056460  87.1429 273.6242 14.78977295 75940"
      },
      "geometry": {
        "type": "Point",
        "coordinates": [
          51.4074406879329,
          34.385537633301965
        ]
      }
    },
    {
      "type": "Feature",
      "properties": {
        "norad_id": 41875,
        "name": "GOKTURK 1A",
        "group": "resource",
        "lat": 56.82046314657229,
        "lon": -120.26737705432788,
        "alt_km": 677.8825815898799,
        "timestamp": "2025-12-26T04:40:05.445663+00:00",
        "meta_object_name": "GOKTURK 1A",
        "meta_object_id": "2016-073A",
        "meta_epoch": "2025-12-25T23:28:48.892224",
        "meta_mean_motion": 14.62795753,
        "meta_eccentricity": 0.0001278,
        "meta_inclination": 98.1424,
        "meta_ra_of_asc_node": 252.1673,
        "meta_arg_of_pericenter": 82.3027,
        "meta_mean_anomaly": 277.832,
        "meta_ephemeris_type": 0,
        "meta_classification_type": "U",
        "meta_norad_cat_id": 41875,
        "meta_element_set_no": 999,
        "meta_rev_at_epoch": 48350,
        "meta_bstar": 0.00018534547,
        "meta_mean_motion_dot": 8.99e-06,
        "meta_mean_motion_ddot": 0,
        "tle_line1": "1 41875U 16073A   25359.97834366  .00000899  00000+0  18535-3 0  9992",
        "tle_line2": "2 41875  98.1424 252.1673 0001278  82.3027 277.8320 14.62795753483509"
      },
      "geometry": {
        "type": "Point",
        "coordinates": [
          -120.26737705432788,
          56.82046314657229
        ]
      }
    },
    {
      "type": "Feature",
      "properties": {
        "norad_id": 41877,
        "name": "RESOURCESAT-2A",
        "group": "resource",
        "lat": -79.79503810387129,
        "lon": 129.05111234230037,
        "alt_km": 827.0060925343041,
        "timestamp": "2025-12-26T04:40:05.445673+00:00",
        "meta_object_name": "RESOURCESAT-2A",
        "meta_object_id": "2016-074A",
        "meta_epoch": "2025-12-25T22:18:35.216928",
        "meta_mean_motion": 14.21604288,
        "meta_eccentricity": 0.00016296,
        "meta_inclination": 98.7736,
        "meta_ra_of_asc_node": 69.7077,
        "meta_arg_of_pericenter": 198.2368,
        "meta_mean_anomaly": 161.8751,
        "meta_ephemeris_type": 0,
        "meta_classification_type": "U",
        "meta_norad_cat_id": 41877,
        "meta_element_set_no": 999,
        "meta_rev_at_epoch": 46968,
        "meta_bstar": -4.2969934e-05,
        "meta_mean_motion_dot": -1.39e-06,
        "meta_mean_motion_ddot": 0,
        "tle_line1": "1 41877U 16074A   25359.92957427 -.00000139  00000+0 -42970-4 0  9994",
        "tle_line2": "2 41877  98.7736  69.7077 0001629 198.2368 161.8751 14.21604288469688"
      },
      "geometry": {
        "type": "Point",
        "coordinates": [
          129.05111234230037,
          -79.79503810387129
        ]
      }
    }
  ]
}